TROLL                   
1 62658U 25009BB  26068.22522958  .00013174  00000+0  48220-3 0  9994
2 62658  97.3932 150.7169 0001816  59.1850 300.9568 15.28164315118170
STARLINK-33830          
1 63587U 25076U   26067.07587061  .00025726  00000+0  94017-3 0  9999
2 63587  43.0005 330.8038 0001635 272.2843  87.7822 15.27612559 51587
